[{"OBJECT_NAME":"STARLINK-3514","OBJECT_ID":"2022-016T","EPOCH":"2026-03-09T22:37:42.417984","MEAN_MOTION":15.08834741,"ECCENTRICITY":0.00012618,"INCLINATION":53.2187,"RA_OF_ASC_NODE":317.9838,"ARG_OF_PERICENTER":87.8677,"MEAN_ANOMALY":272.246,"EPHEMERIS_TYPE":0,"CLASSIFICATION_TYPE":"U","NORAD_CAT_ID":51731,"ELEMENT_SET_NO":999,"REV_AT_EPOCH":22360,"BSTAR":7.881138e-6,"MEAN_MOTION_DOT":-1.62e-6,"MEAN_MOTION_DDOT":0},{"OBJECT_NAME":"SL-24 PLAT","OBJECT_ID":"2014-033AR","EPOCH":"2026-03-09T22:47:27.152448","MEAN_MOTION":15.0919716,"ECCENTRICITY":0.00052059,"INCLINATION":98.0981,"RA_OF_ASC_NODE":61.9435,"ARG_OF_PERICENTER":212.2329,"MEAN_ANOMALY":147.8581,"EPHEMERIS_TYPE":0,"CLASSIFICATION_TYPE":"U","NORAD_CAT_ID":40049,"ELEMENT_SET_NO":999,"REV_AT_EPOCH":63724,"BSTAR":0.00046923352,"MEAN_MOTION_DOT":7.393e-5,"MEAN_MOTION_DDOT":0}]
